ONEWEB-0387             
1 49313U 21090AL  26142.30738750  .00000075  00000+0  15293-3 0  9994
2 49313  87.9163 279.6157 0002199 105.5591 254.5786 13.20772562226406
ONEWEB-0388             
1 49314U 21090AM  26142.17523600  .00000090  00000+0  19135-3 0  9992
2 49314  87.9147 310.1559 0001938  92.0428 268.0927 13.19726106222982
ONEWEB-0389             
1 50469U 21132A   26142.07667501  .00000036  00000+0  59078-4 0  9991
2 50469  87.9153  11.0605 0002166  90.4702 269.6677 13.17650319214645
ONEWEB-0390             
1 50470U 21132B   26142.07835981  .00000025  00000+0  30663-4 0  9999
2 50470  87.9159  11.0606 0001685  91.9705 268.1619 13.17649860214647
ONEWEB-0391             
1 50471U 21132C   26142.08004752  .00000024  00000+0  29268-4 0  9993
2 50471  87.9155  11.0702 0002344 102.8813 257.2580 13.17650393214645
ONEWEB-0392             
1 50472U 21132D   26142.11043227  .00000007  00000+0 -13963-4 0  9995
2 50472  87.9167  11.0302 0002164  92.1062 268.0317 13.17649728214684
ONEWEB-0393             
1 50473U 21132E   26142.08595643  .00000028  00000+0  40086-4 0  9994
2 50473  87.9156  11.0546 0001991  87.4673 272.6686 13.17647928214674
ONEWEB-0394             
1 50474U 21132F   26142.07247480  .00000012  00000+0 -18884-5 0  9993
2 50474  87.9169 340.6388 0002088  90.6605 269.4767 13.18687883218159
ONEWEB-0395             
1 50475U 21132G   26142.07354319 -.00000171  00000+0 -51777-3 0  9997
2 50475  87.8903  26.2636 0001776  89.3940 270.7391 13.11412938212295
ONEWEB-0396             
1 50476U 21132H   26142.06572878  .00000065  00000+0  13333-3 0  9995
2 50476  87.9171 340.6526 0002026  88.9337 271.2027 13.18687515218198
ONEWEB-0397             
1 50477U 21132J   26142.08090566  .00000025  00000+0  29991-4 0  9991
2 50477  87.9171 340.6497 0002061  85.7005 274.4362 13.18687806218170
ONEWEB-0398             
1 50478U 21132K   26142.11763562  .00000354  00000+0  96202-3 0  9992
2 50478  87.8918  26.2427 0001588  88.8994 271.2316 13.11418026212192
ONEWEB-0399             
1 50479U 21132L   26142.10405979 -.00000175  00000+0 -52980-3 0  9995
2 50479  87.8918  26.2560 0002318  85.6889 274.4504 13.11417674212182
ONEWEB-0400             
1 50480U 21132M   26142.28660167  .00000000  00000+0 -32667-4 0  9995
2 50480  87.9170 340.5985 0001698  92.4805 267.6521 13.18687556218197
ONEWEB-0401             
1 50481U 21132N   26142.10451324  .00000030  00000+0  42691-4 0  9990
2 50481  87.9173 340.6316 0001910  80.4207 279.7141 13.18687724218177
ONEWEB-0402             
1 50482U 21132P   26142.06741309  .00000029  00000+0  39721-4 0  9999
2 50482  87.9171 340.6289 0002099  75.9283 284.2082 13.18686107218198
