[{"OBJECT_NAME":"ONEWEB-0387","OBJECT_ID":"2021-090AL","EPOCH":"2026-05-22T07:22:38.280000","MEAN_MOTION":13.20772562,"ECCENTRICITY":0.0002199,"INCLINATION":87.9163,"RA_OF_ASC_NODE":279.6157,"ARG_OF_PERICENTER":105.5591,"MEAN_ANOMALY":254.5786,"EPHEMERIS_TYPE":0,"CLASSIFICATION_TYPE":"U","NORAD_CAT_ID":49313,"ELEMENT_SET_NO":999,"REV_AT_EPOCH":22640,"BSTAR":0.00015293000000000001,"MEAN_MOTION_DOT":7.5e-07,"MEAN_MOTION_DDOT":0.0},{"OBJECT_NAME":"ONEWEB-0388","OBJECT_ID":"2021-090AM","EPOCH":"2026-05-22T04:12:20.390400","MEAN_MOTION":13.19726106,"ECCENTRICITY":0.0001938,"INCLINATION":87.9147,"RA_OF_ASC_NODE":310.1559,"ARG_OF_PERICENTER":92.0428,"MEAN_ANOMALY":268.0927,"EPHEMERIS_TYPE":0,"CLASSIFICATION_TYPE":"U","NORAD_CAT_ID":49314,"ELEMENT_SET_NO":999,"REV_AT_EPOCH":22298,"BSTAR":0.00019135,"MEAN_MOTION_DOT":9e-07,"MEAN_MOTION_DDOT":0.0},{"OBJECT_NAME":"ONEWEB-0389","OBJECT_ID":"2021-132A","EPOCH":"2026-05-22T01:50:24.720864","MEAN_MOTION":13.17650319,"ECCENTRICITY":0.0002166,"INCLINATION":87.9153,"RA_OF_ASC_NODE":11.0605,"ARG_OF_PERICENTER":90.4702,"MEAN_ANOMALY":269.6677,"EPHEMERIS_TYPE":0,"CLASSIFICATION_TYPE":"U","NORAD_CAT_ID":50469,"ELEMENT_SET_NO":999,"REV_AT_EPOCH":21464,"BSTAR":5.9078e-05,"MEAN_MOTION_DOT":3.6e-07,"MEAN_MOTION_DDOT":0.0},{"OBJECT_NAME":"ONEWEB-0390","OBJECT_ID":"2021-132B","EPOCH":"2026-05-22T01:52:50.287584","MEAN_MOTION":13.1764986,"ECCENTRICITY":0.0001685,"INCLINATION":87.9159,"RA_OF_ASC_NODE":11.0606,"ARG_OF_PERICENTER":91.9705,"MEAN_ANOMALY":268.1619,"EPHEMERIS_TYPE":0,"CLASSIFICATION_TYPE":"U","NORAD_CAT_ID":50470,"ELEMENT_SET_NO":999,"REV_AT_EPOCH":21464,"BSTAR":3.0663e-05,"MEAN_MOTION_DOT":2.5e-07,"MEAN_MOTION_DDOT":0.0},{"OBJECT_NAME":"ONEWEB-0391","OBJECT_ID":"2021-132C","EPOCH":"2026-05-22T01:55:16.105728","MEAN_MOTION":13.17650393,"ECCENTRICITY":0.0002344,"INCLINATION":87.9155,"RA_OF_ASC_NODE":11.0702,"ARG_OF_PERICENTER":102.8813,"MEAN_ANOMALY":257.258,"EPHEMERIS_TYPE":0,"CLASSIFICATION_TYPE":"U","NORAD_CAT_ID":50471,"ELEMENT_SET_NO":999,"REV_AT_EPOCH":21464,"BSTAR":2.9268e-05,"MEAN_MOTION_DOT":2.4e-07,"MEAN_MOTION_DDOT":0.0},{"OBJECT_NAME":"ONEWEB-0392","OBJECT_ID":"2021-132D","EPOCH":"2026-05-22T02:39:01.348128","MEAN_MOTION":13.17649728,"ECCENTRICITY":0.0002164,"INCLINATION":87.9167,"RA_OF_ASC_NODE":11.0302,"ARG_OF_PERICENTER":92.1062,"MEAN_ANOMALY":268.0317,"EPHEMERIS_TYPE":0,"CLASSIFICATION_TYPE":"U","NORAD_CAT_ID":50472,"ELEMENT_SET_NO":999,"REV_AT_EPOCH":21468,"BSTAR":-1.3963000000000002e-05,"MEAN_MOTION_DOT":7e-08,"MEAN_MOTION_DDOT":0.0},{"OBJECT_NAME":"ONEWEB-0393","OBJECT_ID":"2021-132E","EPOCH":"2026-05-22T02:03:46.635552","MEAN_MOTION":13.17647928,"ECCENTRICITY":0.0001991,"INCLINATION":87.9156,"RA_OF_ASC_NODE":11.0546,"ARG_OF_PERICENTER":87.4673,"MEAN_ANOMALY":272.6686,"EPHEMERIS_TYPE":0,"CLASSIFICATION_TYPE":"U","NORAD_CAT_ID":50473,"ELEMENT_SET_NO":999,"REV_AT_EPOCH":21467,"BSTAR":4.0086e-05,"MEAN_MOTION_DOT":2.8e-07,"MEAN_MOTION_DDOT":0.0},{"OBJECT_NAME":"ONEWEB-0394","OBJECT_ID":"2021-132F","EPOCH":"2026-05-22T01:44:21.822720","MEAN_MOTION":13.18687883,"ECCENTRICITY":0.0002088,"INCLINATION":87.9169,"RA_OF_ASC_NODE":340.6388,"ARG_OF_PERICENTER":90.6605,"MEAN_ANOMALY":269.4767,"EPHEMERIS_TYPE":0,"CLASSIFICATION_TYPE":"U","NORAD_CAT_ID":50474,"ELEMENT_SET_NO":999,"REV_AT_EPOCH":21815,"BSTAR":-1.8884000000000002e-06,"MEAN_MOTION_DOT":1.2e-07,"MEAN_MOTION_DDOT":0.0},{"OBJECT_NAME":"ONEWEB-0395","OBJECT_ID":"2021-132G","EPOCH":"2026-05-22T01:45:54.131616","MEAN_MOTION":13.11412938,"ECCENTRICITY":0.0001776,"INCLINATION":87.8903,"RA_OF_ASC_NODE":26.2636,"ARG_OF_PERICENTER":89.394,"MEAN_ANOMALY":270.7391,"EPHEMERIS_TYPE":0,"CLASSIFICATION_TYPE":"U","NORAD_CAT_ID":50475,"ELEMENT_SET_NO":999,"REV_AT_EPOCH":21229,"BSTAR":-0.00051777,"MEAN_MOTION_DOT":-1.71e-06,"MEAN_MOTION_DDOT":0.0},{"OBJECT_NAME":"ONEWEB-0396","OBJECT_ID":"2021-132H","EPOCH":"2026-05-22T01:34:38.966592","MEAN_MOTION":13.18687515,"ECCENTRICITY":0.0002026,"INCLINATION":87.9171,"RA_OF_ASC_NODE":340.6526,"ARG_OF_PERICENTER":88.9337,"MEAN_ANOMALY":271.2027,"EPHEMERIS_TYPE":0,"CLASSIFICATION_TYPE":"U","NORAD_CAT_ID":50476,"ELEMENT_SET_NO":999,"REV_AT_EPOCH":21819,"BSTAR":0.00013333,"MEAN_MOTION_DOT":6.5e-07,"MEAN_MOTION_DDOT":0.0},{"OBJECT_NAME":"ONEWEB-0397","OBJECT_ID":"2021-132J","EPOCH":"2026-05-22T01:56:30.249024","MEAN_MOTION":13.18687806,"ECCENTRICITY":0.0002061,"INCLINATION":87.9171,"RA_OF_ASC_NODE":340.6497,"ARG_OF_PERICENTER":85.7005,"MEAN_ANOMALY":274.4362,"EPHEMERIS_TYPE":0,"CLASSIFICATION_TYPE":"U","NORAD_CAT_ID":50477,"ELEMENT_SET_NO":999,"REV_AT_EPOCH":21817,"BSTAR":2.9991e-05,"MEAN_MOTION_DOT":2.5e-07,"MEAN_MOTION_DDOT":0.0},{"OBJECT_NAME":"ONEWEB-0398","OBJECT_ID":"2021-132K","EPOCH":"2026-05-22T02:49:23.717568","MEAN_MOTION":13.11418026,"ECCENTRICITY":0.0001588,"INCLINATION":87.8918,"RA_OF_ASC_NODE":26.2427,"ARG_OF_PERICENTER":88.8994,"MEAN_ANOMALY":271.2316,"EPHEMERIS_TYPE":0,"CLASSIFICATION_TYPE":"U","NORAD_CAT_ID":50478,"ELEMENT_SET_NO":999,"REV_AT_EPOCH":21219,"BSTAR":0.00096202,"MEAN_MOTION_DOT":3.54e-06,"MEAN_MOTION_DDOT":0.0},{"OBJECT_NAME":"ONEWEB-0399","OBJECT_ID":"2021-132L","EPOCH":"2026-05-22T02:29:50.765856","MEAN_MOTION":13.11417674,"ECCENTRICITY":0.0002318,"INCLINATION":87.8918,"RA_OF_ASC_NODE":26.256,"ARG_OF_PERICENTER":85.6889,"MEAN_ANOMALY":274.4504,"EPHEMERIS_TYPE":0,"CLASSIFICATION_TYPE":"U","NORAD_CAT_ID":50479,"ELEMENT_SET_NO":999,"REV_AT_EPOCH":21218,"BSTAR":-0.0005298000000000001,"MEAN_MOTION_DOT":-1.75e-06,"MEAN_MOTION_DDOT":0.0},{"OBJECT_NAME":"ONEWEB-0400","OBJECT_ID":"2021-132M","EPOCH":"2026-05-22T06:52:42.384288","MEAN_MOTION":13.18687556,"ECCENTRICITY":0.0001698,"INCLINATION":87.917,"RA_OF_ASC_NODE":340.5985,"ARG_OF_PERICENTER":92.4805,"MEAN_ANOMALY":267.6521,"EPHEMERIS_TYPE":0,"CLASSIFICATION_TYPE":"U","NORAD_CAT_ID":50480,"ELEMENT_SET_NO":999,"REV_AT_EPOCH":21819,"BSTAR":-3.2667000000000004e-05,"MEAN_MOTION_DOT":0.0,"MEAN_MOTION_DDOT":0.0},{"OBJECT_NAME":"ONEWEB-0401","OBJECT_ID":"2021-132N","EPOCH":"2026-05-22T02:30:29.943936","MEAN_MOTION":13.18687724,"ECCENTRICITY":0.000191,"INCLINATION":87.9173,"RA_OF_ASC_NODE":340.6316,"ARG_OF_PERICENTER":80.4207,"MEAN_ANOMALY":279.7141,"EPHEMERIS_TYPE":0,"CLASSIFICATION_TYPE":"U","NORAD_CAT_ID":50481,"ELEMENT_SET_NO":999,"REV_AT_EPOCH":21817,"BSTAR":4.2691e-05,"MEAN_MOTION_DOT":3e-07,"MEAN_MOTION_DDOT":0.0},{"OBJECT_NAME":"ONEWEB-0402","OBJECT_ID":"2021-132P","EPOCH":"2026-05-22T01:37:04.490976","MEAN_MOTION":13.18686107,"ECCENTRICITY":0.0002099,"INCLINATION":87.9171,"RA_OF_ASC_NODE":340.6289,"ARG_OF_PERICENTER":75.9283,"MEAN_ANOMALY":284.2082,"EPHEMERIS_TYPE":0,"CLASSIFICATION_TYPE":"U","NORAD_CAT_ID":50482,"ELEMENT_SET_NO":999,"REV_AT_EPOCH":21819,"BSTAR":3.9721e-05,"MEAN_MOTION_DOT":2.9e-07,"MEAN_MOTION_DDOT":0.0}]